[{"CCSDS_OMM_VERS":"3.0","COMMENT":"GENERATED VIA SPACE-TRACK.ORG API","CREATION_DATE":"2026-03-28T04:18:04","ORIGINATOR":"18 SPCS","OBJECT_NAME":"COSMOS 2251 DEB","OBJECT_ID":"1993-036AEC","CENTER_NAME":"EARTH","REF_FRAME":"TEME","TIME_SYSTEM":"UTC","MEAN_ELEMENT_THEORY":"SGP4","EPOCH":"2026-03-27T17:47:27.433536","MEAN_MOTION":"14.74681612","ECCENTRICITY":"0.00779520","INCLINATION":"74.0160","RA_OF_ASC_NODE":"264.4136","ARG_OF_PERICENTER":"22.1324","MEAN_ANOMALY":"338.3183","EPHEMERIS_TYPE":"0","CLASSIFICATION_TYPE":"U","NORAD_CAT_ID":"34949","ELEMENT_SET_NO":"999","REV_AT_EPOCH":"89909","BSTAR":"0.00030078321000","MEAN_MOTION_DOT":"0.00002074","MEAN_MOTION_DDOT":"0.0000000000000","SEMIMAJOR_AXIS":"7024.299","PERIOD":"97.648","APOAPSIS":"700.920","PERIAPSIS":"591.408","OBJECT_TYPE":"DEBRIS","RCS_SIZE":"SMALL","COUNTRY_CODE":"CIS","LAUNCH_DATE":"1993-06-16","SITE":"PKMTR","DECAY_DATE":null,"FILE":"5102610","GP_ID":"317343487","TLE_LINE0":"0 COSMOS 2251 DEB","TLE_LINE1":"1 34949U 93036AEC 26086.74128974  .00002074  00000-0  30078-3 0  9998","TLE_LINE2":"2 34949  74.0160 264.4136 0077952  22.1324 338.3183 14.74681612899093"},{"CCSDS_OMM_VERS":"3.0","COMMENT":"GENERATED VIA SPACE-TRACK.ORG API","CREATION_DATE":"2013-04-21T17:24:35","ORIGINATOR":"18 SPCS","OBJECT_NAME":"COSMOS 2251 DEB","OBJECT_ID":"1993-036AED","CENTER_NAME":"EARTH","REF_FRAME":"TEME","TIME_SYSTEM":"UTC","MEAN_ELEMENT_THEORY":"SGP4","EPOCH":"2013-03-24T01:12:10.076832","MEAN_MOTION":"15.45977261","ECCENTRICITY":"0.00672440","INCLINATION":"73.6499","RA_OF_ASC_NODE":"214.7694","ARG_OF_PERICENTER":"292.2804","MEAN_ANOMALY":"190.9337","EPHEMERIS_TYPE":"0","CLASSIFICATION_TYPE":"U","NORAD_CAT_ID":"34950","ELEMENT_SET_NO":"999","REV_AT_EPOCH":"21854","BSTAR":"0.00394830000000","MEAN_MOTION_DOT":"0.00215428","MEAN_MOTION_DDOT":"0.0000000000000","SEMIMAJOR_AXIS":"6806.649","PERIOD":"93.144","APOAPSIS":"474.285","PERIAPSIS":"382.743","OBJECT_TYPE":"DEBRIS","RCS_SIZE":"SMALL","COUNTRY_CODE":"CIS","LAUNCH_DATE":"1993-06-16","SITE":"PKMTR","DECAY_DATE":"2013-05-26","FILE":"1474056","GP_ID":"92718029","TLE_LINE0":"0 COSMOS 2251 DEB","TLE_LINE1":"1 34950U 93036AED 13083.05011663  .00215428  00000-0  39483-2 0  9990","TLE_LINE2":"2 34950 073.6499 214.7694 0067244 292.2804 190.9337 15.45977261218543"},{"CCSDS_OMM_VERS":"3.0","COMMENT":"GENERATED VIA SPACE-TRACK.ORG API","CREATION_DATE":"2025-10-16T07:16:48","ORIGINATOR":"18 SPCS","OBJECT_NAME":"COSMOS 2251 DEB","OBJECT_ID":"1993-036AEE","CENTER_NAME":"EARTH","REF_FRAME":"TEME","TIME_SYSTEM":"UTC","MEAN_ELEMENT_THEORY":"SGP4","EPOCH":"2025-10-15T22:13:03.601632","MEAN_MOTION":"15.81387046","ECCENTRICITY":"0.00123110","INCLINATION":"73.9702","RA_OF_ASC_NODE":"158.2573","ARG_OF_PERICENTER":"198.1726","MEAN_ANOMALY":"161.9065","EPHEMERIS_TYPE":"0","CLASSIFICATION_TYPE":"U","NORAD_CAT_ID":"34951","ELEMENT_SET_NO":"999","REV_AT_EPOCH":"87990","BSTAR":"0.00640730000000","MEAN_MOTION_DOT":"0.01428895","MEAN_MOTION_DDOT":"0.0000000000000","SEMIMAJOR_AXIS":"6704.654","PERIOD":"91.059","APOAPSIS":"334.773","PERIAPSIS":"318.265","OBJECT_TYPE":"DEBRIS","RCS_SIZE":"SMALL","COUNTRY_CODE":"CIS","LAUNCH_DATE":"1993-06-16","SITE":"PKMTR","DECAY_DATE":"2025-10-21","FILE":"4845574","GP_ID":"300203494","TLE_LINE0":"0 COSMOS 2251 DEB","TLE_LINE1":"1 34951U 93036AEE 25288.92573613  .01428895  00000-0  64073-2 0  9993","TLE_LINE2":"2 34951  73.9702 158.2573 0012311 198.1726 161.9065 15.81387046879909"},{"CCSDS_OMM_VERS":"3.0","COMMENT":"GENERATED VIA SPACE-TRACK.ORG API","CREATION_DATE":"2012-07-26T12:18:45","ORIGINATOR":"18 SPCS","OBJECT_NAME":"COSMOS 2251 DEB","OBJECT_ID":"1993-036AEF","CENTER_NAME":"EARTH","REF_FRAME":"TEME","TIME_SYSTEM":"UTC","MEAN_ELEMENT_THEORY":"SGP4","EPOCH":"2012-07-26T06:16:17.743007","MEAN_MOTION":"16.12899304","ECCENTRICITY":"0.00318030","INCLINATION":"73.8300","RA_OF_ASC_NODE":"289.9399","ARG_OF_PERICENTER":"317.9517","MEAN_ANOMALY":"41.9543","EPHEMERIS_TYPE":"0","CLASSIFICATION_TYPE":"U","NORAD_CAT_ID":"34952","ELEMENT_SET_NO":"999","REV_AT_EPOCH":"17973","BSTAR":"0.00154470000000","MEAN_MOTION_DOT":"0.01914467","MEAN_MOTION_DDOT":"0.0000000000000","SEMIMAJOR_AXIS":"6617.042","PERIOD":"89.280","APOAPSIS":"259.952","PERIAPSIS":"217.863","OBJECT_TYPE":"DEBRIS","RCS_SIZE":"SMALL","COUNTRY_CODE":"CIS","LAUNCH_DATE":"1993-06-16","SITE":"PKMTR","DECAY_DATE":"2012-07-26","FILE":"1324519","GP_ID":"89782664","TLE_LINE0":"0 COSMOS 2251 DEB","TLE_LINE1":"1 34952U 93036AEF 12208.26131647  .01914467  00000-0  15447-2 0  9992","TLE_LINE2":"2 34952 073.8300 289.9399 0031803 317.9517 041.9543 16.12899304179739"},{"CCSDS_OMM_VERS":"3.0","COMMENT":"GENERATED VIA SPACE-TRACK.ORG API","CREATION_DATE":"2026-03-28T04:18:04","ORIGINATOR":"18 SPCS","OBJECT_NAME":"COSMOS 2251 DEB","OBJECT_ID":"1993-036AEG","CENTER_NAME":"EARTH","REF_FRAME":"TEME","TIME_SYSTEM":"UTC","MEAN_ELEMENT_THEORY":"SGP4","EPOCH":"2026-03-27T16:52:08.873472","MEAN_MOTION":"14.70315254","ECCENTRICITY":"0.00549428","INCLINATION":"74.0923","RA_OF_ASC_NODE":"184.7756","ARG_OF_PERICENTER":"151.4230","MEAN_ANOMALY":"358.7025","EPHEMERIS_TYPE":"0","CLASSIFICATION_TYPE":"U","NORAD_CAT_ID":"34953","ELEMENT_SET_NO":"999","REV_AT_EPOCH":"89670","BSTAR":"0.00079893632000","MEAN_MOTION_DOT":"0.00004911","MEAN_MOTION_DDOT":"0.0000000000000","SEMIMAJOR_AXIS":"7038.199","PERIOD":"97.938","APOAPSIS":"698.734","PERIAPSIS":"621.394","OBJECT_TYPE":"DEBRIS","RCS_SIZE":"SMALL","COUNTRY_CODE":"CIS","LAUNCH_DATE":"1993-06-16","SITE":"PKMTR","DECAY_DATE":null,"FILE":"5102610","GP_ID":"317342570","TLE_LINE0":"0 COSMOS 2251 DEB","TLE_LINE1":"1 34953U 93036AEG 26086.70288048  .00004911  00000-0  79894-3 0  9999","TLE_LINE2":"2 34953  74.0923 184.7756 0054943 151.4230 358.7025 14.70315254896702"},{"CCSDS_OMM_VERS":"3.0","COMMENT":"GENERATED VIA SPACE-TRACK.ORG API","CREATION_DATE":"2025-04-24T03:13:41","ORIGINATOR":"18 SPCS","OBJECT_NAME":"COSMOS 2251 DEB","OBJECT_ID":"1993-036AEH","CENTER_NAME":"EARTH","REF_FRAME":"TEME","TIME_SYSTEM":"UTC","MEAN_ELEMENT_THEORY":"SGP4","EPOCH":"2025-04-15T09:48:34.892352","MEAN_MOTION":"15.23880308","ECCENTRICITY":"0.00240330","INCLINATION":"73.9638","RA_OF_ASC_NODE":"128.6360","ARG_OF_PERICENTER":"297.5842","MEAN_ANOMALY":"62.2916","EPHEMERIS_TYPE":"0","CLASSIFICATION_TYPE":"U","NORAD_CAT_ID":"34954","ELEMENT_SET_NO":"999","REV_AT_EPOCH":"84448","BSTAR":"0.00657890000000","MEAN_MOTION_DOT":"0.00163610","MEAN_MOTION_DDOT":"0.0000000000000","SEMIMAJOR_AXIS":"6872.287","PERIOD":"94.496","APOAPSIS":"510.668","PERIAPSIS":"477.636","OBJECT_TYPE":"DEBRIS","RCS_SIZE":"SMALL","COUNTRY_CODE":"CIS","LAUNCH_DATE":"1993-06-16","SITE":"PKMTR","DECAY_DATE":"2025-06-24","FILE":"4710120","GP_ID":"286155994","TLE_LINE0":"0 COSMOS 2251 DEB","TLE_LINE1":"1 34954U 93036AEH 25105.40873718  .00163610  00000-0  65789-2 0  9991","TLE_LINE2":"2 34954  73.9638 128.6360 0024033 297.5842  62.2916 15.23880308844480"},{"CCSDS_OMM_VERS":"3.0","COMMENT":"GENERATED VIA SPACE-TRACK.ORG API","CREATION_DATE":"2026-03-25T17:29:05","ORIGINATOR":"18 SPCS","OBJECT_NAME":"COSMOS 2251 DEB","OBJECT_ID":"1993-036AEJ","CENTER_NAME":"EARTH","REF_FRAME":"TEME","TIME_SYSTEM":"UTC","MEAN_ELEMENT_THEORY":"SGP4","EPOCH":"2026-03-25T03:30:38.256768","MEAN_MOTION":"15.02772180","ECCENTRICITY":"0.00712108","INCLINATION":"74.0369","RA_OF_ASC_NODE":"37.8082","ARG_OF_PERICENTER":"81.4346","MEAN_ANOMALY":"279.4903","EPHEMERIS_TYPE":"0","CLASSIFICATION_TYPE":"U","NORAD_CAT_ID":"34955","ELEMENT_SET_NO":"999","REV_AT_EPOCH":"91571","BSTAR":"0.00068825847000","MEAN_MOTION_DOT":"0.00009700","MEAN_MOTION_DDOT":"0.0000000000000","SEMIMAJOR_AXIS":"6936.490","PERIOD":"95.823","APOAPSIS":"607.750","PERIAPSIS":"508.959","OBJECT_TYPE":"DEBRIS","RCS_SIZE":"SMALL","COUNTRY_CODE":"CIS","LAUNCH_DATE":"1993-06-16","SITE":"PKMTR","DECAY_DATE":null,"FILE":"5096884","GP_ID":"317010782","TLE_LINE0":"0 COSMOS 2251 DEB","TLE_LINE1":"1 34955U 93036AEJ 26084.14627612  .00009700  00000-0  68826-3 0  9995","TLE_LINE2":"2 34955  74.0369  37.8082 0071211  81.4346 279.4903 15.02772180915713"},{"CCSDS_OMM_VERS":"3.0","COMMENT":"GENERATED VIA SPACE-TRACK.ORG API","CREATION_DATE":"2012-02-24T00:18:53","ORIGINATOR":"18 SPCS","OBJECT_NAME":"COSMOS 2251 DEB","OBJECT_ID":"1993-036AEK","CENTER_NAME":"EARTH","REF_FRAME":"TEME","TIME_SYSTEM":"UTC","MEAN_ELEMENT_THEORY":"SGP4","EPOCH":"2012-02-24T03:49:48.608831","MEAN_MOTION":"15.83766065","ECCENTRICITY":"0.00123410","INCLINATION":"74.0376","RA_OF_ASC_NODE":"327.3735","ARG_OF_PERICENTER":"327.7432","MEAN_ANOMALY":"25.8154","EPHEMERIS_TYPE":"0","CLASSIFICATION_TYPE":"U","NORAD_CAT_ID":"34956","ELEMENT_SET_NO":"999","REV_AT_EPOCH":"15360","BSTAR":"0.00881330000000","MEAN_MOTION_DOT":"0.02286197","MEAN_MOTION_DDOT":"0.0000000000000","SEMIMAJOR_AXIS":"6697.942","PERIOD":"90.922","APOAPSIS":"328.073","PERIAPSIS":"311.541","OBJECT_TYPE":"DEBRIS","RCS_SIZE":"SMALL","COUNTRY_CODE":"CIS","LAUNCH_DATE":"1993-06-16","SITE":"PKMTR","DECAY_DATE":"2012-02-27","FILE":"1244860","GP_ID":"87433440","TLE_LINE0":"0 COSMOS 2251 DEB","TLE_LINE1":"1 34956U 93036AEK 12055.15959038  .02286197  00000-0  88133-2 0  9991","TLE_LINE2":"2 34956 074.0376 327.3735 0012341 327.7432 025.8154 15.83766065153602"}]